NORAD_CAT_ID,OBJECT_NAME,OBJECT_TYPE,EPOCH,MEAN_MOTION,ECCENTRICITY,INCLINATION,RA_OF_ASC_NODE,ARG_OF_PERICENTER,MEAN_ANOMALY,BSTAR,MEAN_MOTION_DOT,MEAN_MOTION_DDOT,TLE_LINE0,TLE_LINE1,TLE_LINE2,SEMIMAJOR_AXIS,PERIOD,APOGEE,PERIGEE,DECAYED
53020.0,STARLINK-4287,PAYLOAD,2023-02-21 10:52:41,15.08868185,0.0001353,53.217,37.1462,107.764,252.3499,0.0018493,0.00029289,0.0,0 STARLINK-4287,1 53020U 22076AL  23052.45326175  .00029289  00000-0  18493-2 0  9999,2 53020  53.2170  37.1462 0001353 107.7640 252.3499 15.08868185 35541,6917.794,95.436,540.595,538.723,0.0
53020.0,STARLINK-4287,PAYLOAD,2023-02-21 15:38:51,15.08844381,0.0001307,53.218,36.2549,101.1209,258.993,0.00062734,9.711e-05,0.0,0 STARLINK-4287,1 53020U 22076AL  23052.65198516  .00009711  00000-0  62734-3 0  9993,2 53020  53.2180  36.2549 0001307 101.1209 258.9930 15.08844381 35573,6917.867,95.437,540.636,538.828,0.0
53020.0,STARLINK-4287,PAYLOAD,2023-02-22 02:46:33,15.08841625,0.0001579,53.2175,34.1723,103.8116,256.3052,0.00034116,5.146e-05,0.0,0 STARLINK-4287,1 53020U 22076AL  23053.11566706  .00005146  00000-0  34116-3 0  9996,2 53020  53.2175  34.1723 0001579 103.8116 256.3052 15.08841625 35648,6917.875,95.437,540.833,538.648,0.0
53020.0,STARLINK-4287,PAYLOAD,2023-02-22 07:32:43,15.08845305,0.0001469,53.2172,33.2814,104.2812,255.8343,0.00066278,0.00010277,0.0,0 STARLINK-4287,1 53020U 22076AL  23053.31438671  .00010277  00000-0  66278-3 0  9992,2 53020  53.2172  33.2814 0001469 104.2812 255.8343 15.08845305 35200,6917.864,95.437,540.745,538.713,0.0
53020.0,STARLINK-4287,PAYLOAD,2023-02-22 15:29:38,15.08839411,0.000126,53.2172,31.7943,93.9195,266.1941,0.00050266,7.721e-05,0.0,0 STARLINK-4287,1 53020U 22076AL  23053.64558882  .00007721  00000-0  50266-3 0  9995,2 53020  53.2172  31.7943 0001260  93.9195 266.1941 15.08839411 35258,6917.882,95.438,540.619,538.876,0.0
53020.0,STARLINK-4287,PAYLOAD,2023-02-23 04:12:44,15.08839077,0.000137,53.2169,29.4164,93.4065,266.7083,0.00031529,4.733e-05,0.0,0 STARLINK-4287,1 53020U 22076AL  23054.17551123  .00004733  00000-0  31529-3 0  9996,2 53020  53.2169  29.4164 0001370  93.4065 266.7083 15.08839077 35808,6917.883,95.438,540.696,538.8,0.0
53020.0,STARLINK-4287,PAYLOAD,2023-02-23 08:58:53,15.08844942,0.0001463,53.2174,28.5212,86.4131,273.7028,0.00046321,7.093e-05,0.0,0 STARLINK-4287,1 53020U 22076AL  23054.37423073  .00007093  00000-0  46321-3 0  9998,2 53020  53.2174  28.5212 0001463  86.4131 273.7028 15.08844942 35362,6917.865,95.437,540.742,538.718,0.0
53020.0,STARLINK-4287,PAYLOAD,2023-02-24 05:38:53,15.08853868,0.0001181,53.2169,24.6553,94.8329,265.2798,0.00057253,8.839e-05,0.0,0 STARLINK-4287,1 53020U 22076AL  23055.23534682  .00008839  00000-0  57253-3 0  9998,2 53020  53.2169  24.6553 0001181  94.8329 265.2798 15.08853868 35963,6917.838,95.437,540.52,538.886,0.0
53020.0,STARLINK-4287,PAYLOAD,2023-02-24 21:32:45,15.08839858,0.0001239,53.2187,21.6805,106.7407,253.3721,7.8729e-05,9.65e-06,0.0,0 STARLINK-4287,1 53020U 22076AL  23055.89774955  .00000965  00000-0  78729-4 0  9993,2 53020  53.2187  21.6805 0001239 106.7407 253.3721 15.08839858 36063,6917.881,95.438,540.603,538.889,0.0
53020.0,STARLINK-4287,PAYLOAD,2023-02-25 03:54:18,15.08841827,0.000122,53.2184,20.4923,103.8321,256.2807,0.00019388,2.799e-05,0.0,0 STARLINK-4287,1 53020U 22076AL  23056.16271003  .00002799  00000-0  19388-3 0  9992,2 53020  53.2184  20.4923 0001220 103.8321 256.2807 15.08841827 35639,6917.875,95.437,540.584,538.896,0.0
53020.0,STARLINK-4287,PAYLOAD,2023-02-26 03:45:05,15.08847888,0.0001128,53.2184,16.0336,99.5325,260.5795,0.00031448,4.722e-05,0.0,0 STARLINK-4287,1 53020U 22076AL  23057.15631103  .00004722  00000-0  31448-3 0  9992,2 53020  53.2184  16.0336 0001128  99.5325 260.5795 15.08847888 36256,6917.856,95.437,540.502,538.941,0.0
53020.0,STARLINK-4287,PAYLOAD,2023-02-26 21:14:19,15.08849048,0.0001239,53.22,12.7633,95.2053,264.9081,0.0003484,5.263e-05,0.0,0 STARLINK-4287,1 53020U 22076AL  23057.88494943  .00005263  00000-0  34840-3 0  9991,2 53020  53.2200  12.7633 0001239  95.2053 264.9081 15.08849048 35897,6917.853,95.437,540.575,538.861,0.0
53020.0,STARLINK-4287,PAYLOAD,2023-02-27 05:11:14,15.08864217,0.0001162,53.22,11.2784,85.6092,274.5033,0.00071167,0.00011064,0.0,0 STARLINK-4287,1 53020U 22076AL  23058.21614457  .00011064  00000-0  71167-3 0  9992,2 53020  53.2200  11.2784 0001162  85.6092 274.5033 15.08864217 36417,6917.806,95.436,540.475,538.868,0.0
53020.0,STARLINK-4287,PAYLOAD,2023-02-27 06:46:37,15.0887018,0.0001303,53.2186,10.9771,84.1548,275.9592,0.00097384,0.00015257,0.0,0 STARLINK-4287,1 53020U 22076AL  23058.28238382  .00015257  00000-0  97384-3 0  9995,2 53020  53.2186  10.9771 0001303  84.1548 275.9592 15.08870180 35958,6917.788,95.436,540.555,538.752,0.0
53020.0,STARLINK-4287,PAYLOAD,2023-02-28 06:37:23,15.0890288,0.000116,53.2181,6.5176,95.8326,264.2799,0.0015453,0.00024433,0.0,0 STARLINK-4287,1 53020U 22076AL  23059.27596372  .00024433  00000-0  15453-2 0  9993,2 53020  53.2181   6.5176 0001160  95.8326 264.2799 15.08902880 36579,6917.688,95.434,540.356,538.751,0.0
53020.0,STARLINK-4287,PAYLOAD,2023-02-28 20:55:53,15.08802576,0.0001544,53.2185,3.8414,121.3145,238.7999,-0.0010244,-0.00016538,0.0,0 STARLINK-4287,1 53020U 22076AL  23059.87214375 -.00016538  00000-0 -10244-2 0  9991,2 53020  53.2185   3.8414 0001544 121.3145 238.7999 15.08802576 36195,6917.995,95.44,540.928,538.792,0.0
53020.0,STARLINK-4287,PAYLOAD,2023-03-01 08:03:36,15.08805368,0.0001573,53.2175,1.7609,129.373,230.7401,0.00164,0.00025884,0.0,0 STARLINK-4287,1 53020U 22076AL  23060.33584045  .00025884  00000-0  16400-2 0  9990,2 53020  53.2175   1.7609 0001573 129.3730 230.7401 15.08805368 36739,6917.986,95.44,540.939,538.763,0.0
53020.0,STARLINK-4287,PAYLOAD,2023-03-02 03:08:14,15.08861804,0.0001579,53.2168,358.1928,132.76,227.3525,0.0018427,0.00029178,0.0,0 STARLINK-4287,1 53020U 22076AL  23061.13072044  .00029178  00000-0  18427-2 0  9991,2 53020  53.2168 358.1928 0001579 132.7600 227.3525 15.08861804 36853,6917.814,95.436,540.771,538.586,0.0
53020.0,STARLINK-4287,PAYLOAD,2023-03-02 06:19:00,15.08874673,0.0001622,53.2169,357.5978,133.0863,227.0265,0.0019914,0.00031578,0.0,0 STARLINK-4287,1 53020U 22076AL  23061.26319689  .00031578  00000-0  19914-2 0  9993,2 53020  53.2169 357.5978 0001622 133.0863 227.0265 15.08874673 36403,6917.774,95.435,540.761,538.517,0.0
53020.0,STARLINK-4287,PAYLOAD,2023-03-03 07:45:09,15.08882115,0.0001518,53.2167,352.8369,131.027,229.0853,0.0017579,0.00027832,0.0,0 STARLINK-4287,1 53020U 22076AL  23062.32302756  .00027832  00000-0  17579-2 0  9991,2 53020  53.2167 352.8369 0001518 131.0270 229.0853 15.08882115 37032,6917.752,95.435,540.667,538.567,0.0
53020.0,STARLINK-4287,PAYLOAD,2023-03-03 18:52:51,15.08856851,8.25e-05,53.2178,350.7598,82.5823,277.5263,0.00075672,0.00011781,0.0,0 STARLINK-4287,1 53020U 22076AL  23062.78671036  .00011781  00000-0  75672-3 0  9996,2 53020  53.2178 350.7598 0000825  82.5823 277.5263 15.08856851 36635,6917.829,95.436,540.265,539.123,0.0
53020.0,STARLINK-4287,PAYLOAD,2023-03-03 22:03:37,15.08849383,0.0002131,53.2128,350.1599,121.4266,238.6935,0.0022553,0.00035798,0.0,0 STARLINK-4287,1 53020U 22076AL  23062.91918707  .00035798  00000-0  22553-2 0  9993,2 53020  53.2128 350.1599 0002131 121.4266 238.6935 15.08849383 37122,6917.852,95.437,541.191,538.243,0.0
53020.0,STARLINK-4287,PAYLOAD,2023-03-04 04:25:09,15.08890454,0.000129,53.2173,348.9725,112.6206,247.4922,0.0014211,0.00022432,0.0,0 STARLINK-4287,1 53020U 22076AL  23063.18413456  .00022432  00000-0  14211-2 0  9997,2 53020  53.2173 348.9725 0001290 112.6206 247.4922 15.08890454 37162,6917.726,95.434,540.484,538.699,0.0
53020.0,STARLINK-4287,PAYLOAD,2023-03-05 01:05:11,15.08837917,0.0002303,53.2179,345.1068,91.816,268.3096,0.00071812,0.00011159,0.0,0 STARLINK-4287,1 53020U 22076AL  23064.04527499  .00011159  00000-0  71812-3 0  9991,2 53020  53.2179 345.1068 0002303  91.8160 268.3096 15.08837917 37293,6917.887,95.438,541.345,538.159,0.0
53020.0,STARLINK-4287,PAYLOAD,2023-03-05 09:02:07,15.08834861,0.0001261,53.2173,343.6208,76.5031,283.6101,0.00090785,0.00014188,0.0,0 STARLINK-4287,1 53020U 22076AL  23064.37647598  .00014188  00000-0  90785-3 0  9995,2 53020  53.2173 343.6208 0001261  76.5031 283.6101 15.08834861 36870,6917.896,95.438,540.633,538.889,0.0
53020.0,STARLINK-4287,PAYLOAD,2023-03-05 21:45:12,15.08840535,0.0001438,53.2168,341.2425,76.3681,283.7471,0.0014099,0.00022222,0.0,0 STARLINK-4287,1 53020U 22076AL  23064.90639884  .00022222  00000-0  14099-2 0  9994,2 53020  53.2168 341.2425 0001438  76.3681 283.7471 15.08840535 37422,6917.879,95.438,540.739,538.749,0.0
53020.0,STARLINK-4287,PAYLOAD,2023-03-06 18:25:13,15.08851258,0.0001266,53.2171,337.377,62.4404,297.6716,0.00068084,0.00010568,0.0,0 STARLINK-4287,1 53020U 22076AL  23065.76751633  .00010568  00000-0  68084-3 0  9990,2 53020  53.2171 337.3770 0001266  62.4404 297.6716 15.08851258 37557,6917.846,95.437,540.587,538.835,0.0
53020.0,STARLINK-4287,PAYLOAD,2023-03-07 00:46:45,15.08847415,0.0001315,53.2164,336.1861,55.7664,304.3452,0.00036346,5.502e-05,0.0,0 STARLINK-4287,1 53020U 22076AL  23066.03247593  .00005502  00000-0  36346-3 0  9994,2 53020  53.2164 336.1861 0001315  55.7664 304.3452 15.08847415 37592,6917.858,95.437,540.632,538.813,0.0
53020.0,STARLINK-4287,PAYLOAD,2023-03-07 18:16:00,15.08843798,0.0001592,53.2173,332.9171,56.1237,303.9906,0.00033224,5.004e-05,0.0,0 STARLINK-4287,1 53020U 22076AL  23066.76111891  .00005004  00000-0  33224-3 0  9994,2 53020  53.2173 332.9171 0001592  56.1237 303.9906 15.08843798 37700,6917.869,95.437,540.835,538.632,0.0
53020.0,STARLINK-4287,PAYLOAD,2023-03-08 03:48:19,15.08866603,0.0001382,53.2169,331.1324,64.1453,295.9682,0.0011994,0.00018866,0.0,0 STARLINK-4287,1 53020U 22076AL  23067.15855354  .00018866  00000-0  11994-2 0  9996,2 53020  53.2169 331.1324 0001382  64.1453 295.9682 15.08866603 37769,6917.799,95.436,540.62,538.708,0.0
